{
    "links": {
        "self": "http://www.neowsapp.com/rest/v1/neo/3443859?api_key=iIulBulltgU6a56xZRHN4H3l9WmuAYTsLGpBGhQ2"
    },
    "id": "3443859",
    "neo_reference_id": "3443859",
    "name": "(2008 YC33)",
    "designation": "2008 YC33",
    "nasa_jpl_url": "http://ssd.jpl.nasa.gov/sbdb.cgi?sstr=3443859",
    "absolute_magnitude_h": 24.3,
    "estimated_diameter": {
        "kilometers": {
            "estimated_diameter_min": 0.0366906138,
            "estimated_diameter_max": 0.0820427065
        },
        "meters": {
            "estimated_diameter_min": 36.6906137531,
            "estimated_diameter_max": 82.0427064882
        },
        "miles": {
            "estimated_diameter_min": 0.0227984834,
            "estimated_diameter_max": 0.0509789586
        },
        "feet": {
            "estimated_diameter_min": 120.3760332259,
            "estimated_diameter_max": 269.1689931548
        }
    },
    "is_potentially_hazardous_asteroid": false,
    "close_approach_data": [
        {
            "close_approach_date": "2009-01-11",
            "close_approach_date_full": "2009-Jan-11 01:51",
            "epoch_date_close_approach": 1231638660000,
            "relative_velocity": {
                "kilometers_per_second": "6.9693279764",
                "kilometers_per_hour": "25089.5807150572",
                "miles_per_hour": "15589.6897504199"
            },
            "miss_distance": {
                "astronomical": "0.1234674352",
                "lunar": "48.0288322928",
                "kilometers": "18470465.320283024",
                "miles": "11477014.9537687712"
            },
            "orbiting_body": "Earth"
        },
        {
            "close_approach_date": "2009-05-03",
            "close_approach_date_full": "2009-May-03 00:30",
            "epoch_date_close_approach": 1241310600000,
            "relative_velocity": {
                "kilometers_per_second": "6.0613709825",
                "kilometers_per_hour": "21820.9355369142",
                "miles_per_hour": "13558.6807507009"
            },
            "miss_distance": {
                "astronomical": "0.2067869949",
                "lunar": "80.4401410161",
                "kilometers": "30934893.980740863",
                "miles": "19222051.7812473894"
            },
            "orbiting_body": "Earth"
        }
    ],
    "orbital_data": {
        "orbit_id": "6",
        "orbit_determination_date": "2017-04-06 09:01:44",
        "first_observation_date": "2008-12-31",
        "last_observation_date": "2009-01-01",
        "data_arc_in_days": 1,
        "observations_used": 9,
        "orbit_uncertainty": "9",
        "minimum_orbit_intersection": ".0949348",
        "jupiter_tisserand_invariant": "4.850",
        "epoch_osculation": "2454831.5",
        "eccentricity": ".2659520530234191",
        "semi_major_axis": "1.336310446044613",
        "inclination": "11.89186537473984",
        "ascending_node_longitude": "272.3417047588283",
        "orbital_period": "564.2342848491352",
        "perihelion_distance": ".980915939442407",
        "perihelion_argument": "245.5385059791875",
        "aphelion_distance": "1.691704952646818",
        "perihelion_time": "2454889.895228844903",
        "mean_anomaly": "322.7419266275426",
        "mean_motion": ".6380328343504627",
        "equinox": "J2000",
        "orbit_class": {
            "orbit_class_type": "APO",
            "orbit_class_description": "Near-Earth asteroid orbits which cross the Earth’s orbit similar to that of 1862 Apollo",
            "orbit_class_range": "a (semi-major axis) > 1.0 AU; q (perihelion) < 1.017 AU"
        }
    },
    "is_sentry_object": false
}